[{"OBJECT_NAME":"NEXSAT-1","OBJECT_ID":"2024-024E","EPOCH":"2026-03-09T22:47:24.778176","MEAN_MOTION":15.32166372,"ECCENTRICITY":0.00099795,"INCLINATION":97.3124,"RA_OF_ASC_NODE":144.1918,"ARG_OF_PERICENTER":108.5709,"MEAN_ANOMALY":251.6617,"EPHEMERIS_TYPE":0,"CLASSIFICATION_TYPE":"U","NORAD_CAT_ID":58921,"ELEMENT_SET_NO":999,"REV_AT_EPOCH":11669,"BSTAR":0.00031433612,"MEAN_MOTION_DOT":9.702e-5,"MEAN_MOTION_DDOT":0},{"OBJECT_NAME":"STARLINK-35236","OBJECT_ID":"2025-232D","EPOCH":"2026-03-09T19:33:06.527232","MEAN_MOTION":15.30201337,"ECCENTRICITY":0.00015344,"INCLINATION":53.1593,"RA_OF_ASC_NODE":103.4018,"ARG_OF_PERICENTER":89.9506,"MEAN_ANOMALY":270.1671,"EPHEMERIS_TYPE":0,"CLASSIFICATION_TYPE":"U","NORAD_CAT_ID":66008,"ELEMENT_SET_NO":999,"REV_AT_EPOCH":2343,"BSTAR":0.00057955464,"MEAN_MOTION_DOT":0.00016845,"MEAN_MOTION_DDOT":0}]
